[{"OBJECT_NAME":"STARLINK-36443","OBJECT_ID":"2026-005AD","EPOCH":"2026-03-09T12:36:39.531456","MEAN_MOTION":15.28415724,"ECCENTRICITY":0.00022913,"INCLINATION":42.9998,"RA_OF_ASC_NODE":238.7026,"ARG_OF_PERICENTER":266.798,"MEAN_ANOMALY":93.261,"EPHEMERIS_TYPE":0,"CLASSIFICATION_TYPE":"U","NORAD_CAT_ID":67431,"ELEMENT_SET_NO":999,"REV_AT_EPOCH":867,"BSTAR":0.001062734,"MEAN_MOTION_DOT":0.00029859,"MEAN_MOTION_DDOT":0},{"OBJECT_NAME":"FENGYUN 1C DEB","OBJECT_ID":"1999-025CCU","EPOCH":"2026-03-09T04:16:51.250080","MEAN_MOTION":14.7380712,"ECCENTRICITY":0.02770831,"INCLINATION":98.1363,"RA_OF_ASC_NODE":145.1449,"ARG_OF_PERICENTER":173.2574,"MEAN_ANOMALY":217.8544,"EPHEMERIS_TYPE":0,"CLASSIFICATION_TYPE":"U","NORAD_CAT_ID":31686,"ELEMENT_SET_NO":999,"REV_AT_EPOCH":99091,"BSTAR":0.001175879,"MEAN_MOTION_DOT":0.00014291,"MEAN_MOTION_DDOT":0}]
